FENGYUN 1C DEB          
1 29834U 99025EC  17345.47229642  .00002698  00000-0  21272-3 0  9999
2 29834  98.3174 344.5311 0113568 192.8376 320.9390 14.96764811580928
